[
  {
    "OBJECT_NAME": "STARLINK-6220",
    "OBJECT_ID": "23064AL",
    "EPOCH": "2025-11-11T06:45:54.876960",
    "MEAN_MOTION": 14.98332131,
    "ECCENTRICITY": 0.0002846,
    "INCLINATION": 69.9995,
    "RA_OF_ASC_NODE": 62.976,
    "ARG_OF_PERICENTER": 261.8668,
    "MEAN_ANOMALY": 98.2168,
    "EPHEMERIS_TYPE": 0,
    "CLASSIFICATION_TYPE": "U",
    "NORAD_CAT_ID": 56482,
    "ELEMENT_SET_NO": 999,
    "REV_AT_EPOCH": 13800,
    "BSTAR": 0.0,
    "MEAN_MOTION_DOT": -1.645e-05,
    "MEAN_MOTION_DDOT": 0.0,
    "TLE_LINE1": "1 56482U 23064AL  25315.28188515 -.00001645  00000+0 -13010-3 0  9999",
    "TLE_LINE2": "2 56482  69.9995  62.9760 0002846 261.8668  98.2168 14.98332131138002",
    "COMMENT": "Grouped by shell and plane from TLE"
  },
  {
    "OBJECT_NAME": "STARLINK-5868",
    "OBJECT_ID": "23064AM",
    "EPOCH": "2025-11-11T06:39:53.007840",
    "MEAN_MOTION": 14.98347598,
    "ECCENTRICITY": 0.0002847,
    "INCLINATION": 70.0003,
    "RA_OF_ASC_NODE": 62.9584,
    "ARG_OF_PERICENTER": 271.0639,
    "MEAN_ANOMALY": 89.0194,
    "EPHEMERIS_TYPE": 0,
    "CLASSIFICATION_TYPE": "U",
    "NORAD_CAT_ID": 56483,
    "ELEMENT_SET_NO": 999,
    "REV_AT_EPOCH": 13800,
    "BSTAR": 9.654000000000001e-05,
    "MEAN_MOTION_DOT": 1.06e-05,
    "MEAN_MOTION_DDOT": 0.0,
    "TLE_LINE1": "1 56483U 23064AM  25315.27769685  .00001060  00000+0  96540-4 0  9991",
    "TLE_LINE2": "2 56483  70.0003  62.9584 0002847 271.0639  89.0194 14.98347598138002",
    "COMMENT": "Grouped by shell and plane from TLE"
  },
  {
    "OBJECT_NAME": "STARLINK-6221",
    "OBJECT_ID": "23064AN",
    "EPOCH": "2025-11-11T06:33:53.461152",
    "MEAN_MOTION": 14.98335571,
    "ECCENTRICITY": 0.0003111,
    "INCLINATION": 70.0002,
    "RA_OF_ASC_NODE": 62.9465,
    "ARG_OF_PERICENTER": 271.9646,
    "MEAN_ANOMALY": 88.1156,
    "EPHEMERIS_TYPE": 0,
    "CLASSIFICATION_TYPE": "U",
    "NORAD_CAT_ID": 56484,
    "ELEMENT_SET_NO": 999,
    "REV_AT_EPOCH": 13800,
    "BSTAR": 2.7170000000000002e-05,
    "MEAN_MOTION_DOT": 2.31e-06,
    "MEAN_MOTION_DDOT": 0.0,
    "TLE_LINE1": "1 56484U 23064AN  25315.27353543  .00000231  00000+0  27170-4 0  9996",
    "TLE_LINE2": "2 56484  70.0002  62.9465 0003111 271.9646  88.1156 14.98335571138008",
    "COMMENT": "Grouped by shell and plane from TLE"
  },
  {
    "OBJECT_NAME": "STARLINK-6210",
    "OBJECT_ID": "23064AP",
    "EPOCH": "2025-11-11T06:09:50.715936",
    "MEAN_MOTION": 14.9833459,
    "ECCENTRICITY": 0.0003013,
    "INCLINATION": 69.9997,
    "RA_OF_ASC_NODE": 62.8875,
    "ARG_OF_PERICENTER": 270.3767,
    "MEAN_ANOMALY": 89.7046,
    "EPHEMERIS_TYPE": 0,
    "CLASSIFICATION_TYPE": "U",
    "NORAD_CAT_ID": 56485,
    "ELEMENT_SET_NO": 999,
    "REV_AT_EPOCH": 13800,
    "BSTAR": 4.463400000000001e-05,
    "MEAN_MOTION_DOT": 4.4e-06,
    "MEAN_MOTION_DDOT": 0.0,
    "TLE_LINE1": "1 56485U 23064AP  25315.25683699  .00000440  00000+0  44634-4 0  9999",
    "TLE_LINE2": "2 56485  69.9997  62.8875 0003013 270.3767  89.7046 14.98334590138006",
    "COMMENT": "Grouped by shell and plane from TLE"
  },
  {
    "OBJECT_NAME": "STARLINK-6201",
    "OBJECT_ID": "23064AQ",
    "EPOCH": "2025-11-11T06:21:52.082496",
    "MEAN_MOTION": 14.98332251,
    "ECCENTRICITY": 0.0003177,
    "INCLINATION": 69.9997,
    "RA_OF_ASC_NODE": 62.9169,
    "ARG_OF_PERICENTER": 270.4446,
    "MEAN_ANOMALY": 89.6349,
    "EPHEMERIS_TYPE": 0,
    "CLASSIFICATION_TYPE": "U",
    "NORAD_CAT_ID": 56486,
    "ELEMENT_SET_NO": 999,
    "REV_AT_EPOCH": 13800,
    "BSTAR": 4.7555e-05,
    "MEAN_MOTION_DOT": 4.74e-06,
    "MEAN_MOTION_DDOT": 0.0,
    "TLE_LINE1": "1 56486U 23064AQ  25315.26518614  .00000474  00000+0  47555-4 0  9997",
    "TLE_LINE2": "2 56486  69.9997  62.9169 0003177 270.4446  89.6349 14.98332251138007",
    "COMMENT": "Grouped by shell and plane from TLE"
  },
  {
    "OBJECT_NAME": "STARLINK-30242",
    "OBJECT_ID": "23131H",
    "EPOCH": "2025-11-11T07:39:13.684896",
    "MEAN_MOTION": 15.02547894,
    "ECCENTRICITY": 0.0001484,
    "INCLINATION": 43.0067,
    "RA_OF_ASC_NODE": 69.6221,
    "ARG_OF_PERICENTER": 276.4816,
    "MEAN_ANOMALY": 83.5858,
    "EPHEMERIS_TYPE": 0,
    "CLASSIFICATION_TYPE": "U",
    "NORAD_CAT_ID": 57739,
    "ELEMENT_SET_NO": 999,
    "REV_AT_EPOCH": 12241,
    "BSTAR": 0.00015813,
    "MEAN_MOTION_DOT": 1.934e-05,
    "MEAN_MOTION_DDOT": 0.0,
    "TLE_LINE1": "1 57739U 23131H   25315.31890839  .00001934  00000+0  15813-3 0  9995",
    "TLE_LINE2": "2 57739  43.0067  69.6221 0001484 276.4816  83.5858 15.02547894122412",
    "COMMENT": "Grouped by shell and plane from TLE"
  },
  {
    "OBJECT_NAME": "STARLINK-30753",
    "OBJECT_ID": "23167A",
    "EPOCH": "2025-11-11T07:48:39.178944",
    "MEAN_MOTION": 15.02583165,
    "ECCENTRICITY": 0.0001862,
    "INCLINATION": 43.0056,
    "RA_OF_ASC_NODE": 68.8084,
    "ARG_OF_PERICENTER": 281.7608,
    "MEAN_ANOMALY": 78.3026,
    "EPHEMERIS_TYPE": 0,
    "CLASSIFICATION_TYPE": "U",
    "NORAD_CAT_ID": 58175,
    "ELEMENT_SET_NO": 999,
    "REV_AT_EPOCH": 11315,
    "BSTAR": 0.0,
    "MEAN_MOTION_DOT": -0.00010011,
    "MEAN_MOTION_DDOT": 0.0,
    "TLE_LINE1": "1 58175U 23167A   25315.32545346 -.00010011  00000+0 -72613-3 0  9999",
    "TLE_LINE2": "2 58175  43.0056  68.8084 0001862 281.7608  78.3026 15.02583165113152",
    "COMMENT": "Grouped by shell and plane from TLE"
  },
  {
    "OBJECT_NAME": "STARLINK-30824",
    "OBJECT_ID": "23167B",
    "EPOCH": "2025-11-11T07:47:02.822208",
    "MEAN_MOTION": 15.02528038,
    "ECCENTRICITY": 0.0001284,
    "INCLINATION": 43.0053,
    "RA_OF_ASC_NODE": 68.7969,
    "ARG_OF_PERICENTER": 273.1818,
    "MEAN_ANOMALY": 86.8877,
    "EPHEMERIS_TYPE": 0,
    "CLASSIFICATION_TYPE": "U",
    "NORAD_CAT_ID": 58176,
    "ELEMENT_SET_NO": 999,
    "REV_AT_EPOCH": 11315,
    "BSTAR": 0.00027335,
    "MEAN_MOTION_DOT": 3.49e-05,
    "MEAN_MOTION_DDOT": 0.0,
    "TLE_LINE1": "1 58176U 23167B   25315.32433822  .00003490  00000+0  27335-3 0  9997",
    "TLE_LINE2": "2 58176  43.0053  68.7969 0001284 273.1818  86.8877 15.02528038113153",
    "COMMENT": "Grouped by shell and plane from TLE"
  },
  {
    "OBJECT_NAME": "STARLINK-30810",
    "OBJECT_ID": "23167D",
    "EPOCH": "2025-11-11T07:37:37.245216",
    "MEAN_MOTION": 15.02548062,
    "ECCENTRICITY": 0.0001407,
    "INCLINATION": 43.003,
    "RA_OF_ASC_NODE": 69.5938,
    "ARG_OF_PERICENTER": 279.906,
    "MEAN_ANOMALY": 80.1624,
    "EPHEMERIS_TYPE": 0,
    "CLASSIFICATION_TYPE": "U",
    "NORAD_CAT_ID": 58178,
    "ELEMENT_SET_NO": 999,
    "REV_AT_EPOCH": 11314,
    "BSTAR": 0.0,
    "MEAN_MOTION_DOT": -7.11e-06,
    "MEAN_MOTION_DDOT": 0.0,
    "TLE_LINE1": "1 58178U 23167D   25315.31779219 -.00000711  00000+0 -37512-4 0  9995",
    "TLE_LINE2": "2 58178  43.0030  69.5938 0001407 279.9060  80.1624 15.02548062113140",
    "COMMENT": "Grouped by shell and plane from TLE"
  },
  {
    "OBJECT_NAME": "STARLINK-30819",
    "OBJECT_ID": "23167E",
    "EPOCH": "2025-11-11T07:32:49.440768",
    "MEAN_MOTION": 15.02538051,
    "ECCENTRICITY": 0.0001172,
    "INCLINATION": 43.0047,
    "RA_OF_ASC_NODE": 69.5669,
    "ARG_OF_PERICENTER": 270.3991,
    "MEAN_ANOMALY": 89.6717,
    "EPHEMERIS_TYPE": 0,
    "CLASSIFICATION_TYPE": "U",
    "NORAD_CAT_ID": 58179,
    "ELEMENT_SET_NO": 999,
    "REV_AT_EPOCH": 11314,
    "BSTAR": 6.7688e-05,
    "MEAN_MOTION_DOT": 7.11e-06,
    "MEAN_MOTION_DDOT": 0.0,
    "TLE_LINE1": "1 58179U 23167E   25315.31446112  .00000711  00000+0  67688-4 0  9994",
    "TLE_LINE2": "2 58179  43.0047  69.5669 0001172 270.3991  89.6717 15.02538051113141",
    "COMMENT": "Grouped by shell and plane from TLE"
  },
  {
    "OBJECT_NAME": "STARLINK-30806",
    "OBJECT_ID": "23167F",
    "EPOCH": "2025-11-11T06:56:03.313536",
    "MEAN_MOTION": 15.02548545,
    "ECCENTRICITY": 0.0001379,
    "INCLINATION": 43.0052,
    "RA_OF_ASC_NODE": 69.373,
    "ARG_OF_PERICENTER": 270.6271,
    "MEAN_ANOMALY": 89.4413,
    "EPHEMERIS_TYPE": 0,
    "CLASSIFICATION_TYPE": "U",
    "NORAD_CAT_ID": 58180,
    "ELEMENT_SET_NO": 999,
    "REV_AT_EPOCH": 11314,
    "BSTAR": 0.00018229999999999999,
    "MEAN_MOTION_DOT": 2.26e-05,
    "MEAN_MOTION_DDOT": 0.0,
    "TLE_LINE1": "1 58180U 23167F   25315.28892724  .00002260  00000+0  18230-3 0  9995",
    "TLE_LINE2": "2 58180  43.0052  69.3730 0001379 270.6271  89.4413 15.02548545113149",
    "COMMENT": "Grouped by shell and plane from TLE"
  },
  {
    "OBJECT_NAME": "STARLINK-30809",
    "OBJECT_ID": "23167J",
    "EPOCH": "2025-11-11T07:23:13.369632",
    "MEAN_MOTION": 15.02545624,
    "ECCENTRICITY": 0.0001354,
    "INCLINATION": 43.0042,
    "RA_OF_ASC_NODE": 69.5191,
    "ARG_OF_PERICENTER": 271.8289,
    "MEAN_ANOMALY": 88.2399,
    "EPHEMERIS_TYPE": 0,
    "CLASSIFICATION_TYPE": "U",
    "NORAD_CAT_ID": 58183,
    "ELEMENT_SET_NO": 999,
    "REV_AT_EPOCH": 11314,
    "BSTAR": 0.00019965,
    "MEAN_MOTION_DOT": 2.495e-05,
    "MEAN_MOTION_DDOT": 0.0,
    "TLE_LINE1": "1 58183U 23167J   25315.30779363  .00002495  00000+0  19965-3 0  9990",
    "TLE_LINE2": "2 58183  43.0042  69.5191 0001354 271.8289  88.2399 15.02545624113144",
    "COMMENT": "Grouped by shell and plane from TLE"
  },
  {
    "OBJECT_NAME": "STARLINK-30801",
    "OBJECT_ID": "23167K",
    "EPOCH": "2025-11-11T07:18:26.429184",
    "MEAN_MOTION": 15.02540193,
    "ECCENTRICITY": 0.0001642,
    "INCLINATION": 43.0022,
    "RA_OF_ASC_NODE": 69.4919,
    "ARG_OF_PERICENTER": 268.6111,
    "MEAN_ANOMALY": 91.4543,
    "EPHEMERIS_TYPE": 0,
    "CLASSIFICATION_TYPE": "U",
    "NORAD_CAT_ID": 58184,
    "ELEMENT_SET_NO": 999,
    "REV_AT_EPOCH": 11314,
    "BSTAR": 0.00040202,
    "MEAN_MOTION_DOT": 5.232e-05,
    "MEAN_MOTION_DDOT": 0.0,
    "TLE_LINE1": "1 58184U 23167K   25315.30447256  .00005232  00000+0  40202-3 0  9994",
    "TLE_LINE2": "2 58184  43.0022  69.4919 0001642 268.6111  91.4543 15.02540193113141",
    "COMMENT": "Grouped by shell and plane from TLE"
  }
]